{
  "type": "FeatureCollection",
  "features": [
    {
      "type": "Feature",
      "properties": {
        "norad_id": 34589,
        "name": "COSMOS 2251 DEB",
        "group": "cosmos-2251-debris",
        "lat": 44.62345751516261,
        "lon": 62.073690859226964,
        "alt_km": 840.9494215671311,
        "timestamp": "2025-12-18T21:31:51.399745+00:00",
        "meta_object_name": "COSMOS 2251 DEB",
        "meta_object_id": "1993-036WB",
        "meta_epoch": "2025-12-18T04:08:06.815040",
        "meta_mean_motion": 13.86058169,
        "meta_eccentricity": 0.02521167,
        "meta_inclination": 73.925,
        "meta_ra_of_asc_node": 46.7748,
        "meta_arg_of_pericenter": 349.0115,
        "meta_mean_anomaly": 40.2278,
        "meta_ephemeris_type": 0,
        "meta_classification_type": "U",
        "meta_norad_cat_id": 34589,
        "meta_element_set_no": 999,
        "meta_rev_at_epoch": 84787,
        "meta_bstar": 0.00028861458,
        "meta_mean_motion_dot": 4.02e-06,
        "meta_mean_motion_ddot": 0,
        "tle_line1": "1 34589U 93036WB  25352.17230110  .00000402  00000+0  28861-3 0  9995",
        "tle_line2": "2 34589  73.9250  46.7748 0252116 349.0115  40.2278 13.86058169847877"
      },
      "geometry": {
        "type": "Point",
        "coordinates": [
          62.073690859226964,
          44.62345751516261
        ]
      }
    },
    {
      "type": "Feature",
      "properties": {
        "norad_id": 34590,
        "name": "COSMOS 2251 DEB",
        "group": "cosmos-2251-debris",
        "lat": 62.58748117621147,
        "lon": 97.4226295145482,
        "alt_km": 663.3151632053532,
        "timestamp": "2025-12-18T21:31:51.399755+00:00",
        "meta_object_name": "COSMOS 2251 DEB",
        "meta_object_id": "1993-036WC",
        "meta_epoch": "2025-12-18T06:28:33.055392",
        "meta_mean_motion": 14.54832282,
        "meta_eccentricity": 0.00679903,
        "meta_inclination": 74.0441,
        "meta_ra_of_asc_node": 312.089,
        "meta_arg_of_pericenter": 80.0583,
        "meta_mean_anomaly": 347.9998,
        "meta_ephemeris_type": 0,
        "meta_classification_type": "U",
        "meta_norad_cat_id": 34590,
        "meta_element_set_no": 999,
        "meta_rev_at_epoch": 89201,
        "meta_bstar": 0.00011236701,
        "meta_mean_motion_dot": 4.67e-06,
        "meta_mean_motion_ddot": 0,
        "tle_line1": "1 34590U 93036WC  25352.26982703  .00000467  00000+0  11237-3 0  9999",
        "tle_line2": "2 34590  74.0441 312.0890 0067990  80.0583 347.9998 14.54832282892019"
      },
      "geometry": {
        "type": "Point",
        "coordinates": [
          97.4226295145482,
          62.58748117621147
        ]
      }
    },
    {
      "type": "Feature",
      "properties": {
        "norad_id": 34609,
        "name": "COSMOS 2251 DEB",
        "group": "cosmos-2251-debris",
        "lat": -46.219069903894855,
        "lon": -66.79315224942637,
        "alt_km": 815.5169799236828,
        "timestamp": "2025-12-18T21:31:51.399766+00:00",
        "meta_object_name": "COSMOS 2251 DEB",
        "meta_object_id": "1993-036WE",
        "meta_epoch": "2025-12-18T07:04:35.866848",
        "meta_mean_motion": 14.21812462,
        "meta_eccentricity": 0.01454407,
        "meta_inclination": 73.7335,
        "meta_ra_of_asc_node": 96.5689,
        "meta_arg_of_pericenter": 315.1871,
        "meta_mean_anomaly": 73.6627,
        "meta_ephemeris_type": 0,
        "meta_classification_type": "U",
        "meta_norad_cat_id": 34609,
        "meta_element_set_no": 999,
        "meta_rev_at_epoch": 86711,
        "meta_bstar": 0.00054305711,
        "meta_mean_motion_dot": 1.303e-05,
        "meta_mean_motion_ddot": 0,
        "tle_line1": "1 34609U 93036WE  25352.29485957  .00001303  00000+0  54306-3 0  9996",
        "tle_line2": "2 34609  73.7335  96.5689 0145440 315.1871  73.6627 14.21812462867114"
      },
      "geometry": {
        "type": "Point",
        "coordinates": [
          -66.79315224942637,
          -46.219069903894855
        ]
      }
    },
    {
      "type": "Feature",
      "properties": {
        "norad_id": 34610,
        "name": "COSMOS 2251 DEB",
        "group": "cosmos-2251-debris",
        "lat": 65.37753141582053,
        "lon": -69.77342896183119,
        "alt_km": 777.6577442934849,
        "timestamp": "2025-12-18T21:31:51.399776+00:00",
        "meta_object_name": "COSMOS 2251 DEB",
        "meta_object_id": "1993-036WF",
        "meta_epoch": "2025-12-16T19:43:22.866816",
        "meta_mean_motion": 14.07083274,
        "meta_eccentricity": 0.01805005,
        "meta_inclination": 74.0182,
        "meta_ra_of_asc_node": 255.1605,
        "meta_arg_of_pericenter": 24.866,
        "meta_mean_anomaly": 336.104,
        "meta_ephemeris_type": 0,
        "meta_classification_type": "U",
        "meta_norad_cat_id": 34610,
        "meta_element_set_no": 999,
        "meta_rev_at_epoch": 85617,
        "meta_bstar": 0.0012903668,
        "meta_mean_motion_dot": 2.479e-05,
        "meta_mean_motion_ddot": 0,
        "tle_line1": "1 34610U 93036WF  25350.82179244  .00002479  00000+0  12904-2 0  9996",
        "tle_line2": "2 34610  74.0182 255.1605 0180500  24.8660 336.1040 14.07083274856172"
      },
      "geometry": {
        "type": "Point",
        "coordinates": [
          -69.77342896183119,
          65.37753141582053
        ]
      }
    },
    {
      "type": "Feature",
      "properties": {
        "norad_id": 34611,
        "name": "COSMOS 2251 DEB",
        "group": "cosmos-2251-debris",
        "lat": 62.959058153447735,
        "lon": 123.11516105258126,
        "alt_km": 648.1497774815316,
        "timestamp": "2025-12-18T21:31:51.399786+00:00",
        "meta_object_name": "COSMOS 2251 DEB",
        "meta_object_id": "1993-036WG",
        "meta_epoch": "2025-12-18T06:39:28.145376",
        "meta_mean_motion": 14.69606213,
        "meta_eccentricity": 0.00220772,
        "meta_inclination": 74.0541,
        "meta_ra_of_asc_node": 90.248,
        "meta_arg_of_pericenter": 129.8681,
        "meta_mean_anomaly": 260.9739,
        "meta_ephemeris_type": 0,
        "meta_classification_type": "U",
        "meta_norad_cat_id": 34611,
        "meta_element_set_no": 999,
        "meta_rev_at_epoch": 88472,
        "meta_bstar": 0.0012431836,
        "meta_mean_motion_dot": 7.393e-05,
        "meta_mean_motion_ddot": 0,
        "tle_line1": "1 34611U 93036WG  25352.27740909  .00007393  00000+0  12432-2 0  9996",
        "tle_line2": "2 34611  74.0541  90.2480 0022077 129.8681 260.9739 14.69606213884727"
      },
      "geometry": {
        "type": "Point",
        "coordinates": [
          123.11516105258126,
          62.959058153447735
        ]
      }
    },
    {
      "type": "Feature",
      "properties": {
        "norad_id": 34613,
        "name": "COSMOS 2251 DEB",
        "group": "cosmos-2251-debris",
        "lat": -71.04298258908767,
        "lon": -149.48552349120476,
        "alt_km": 889.594699254967,
        "timestamp": "2025-12-18T21:31:51.399797+00:00",
        "meta_object_name": "COSMOS 2251 DEB",
        "meta_object_id": "1993-036WJ",
        "meta_epoch": "2025-12-16T00:58:31.243296",
        "meta_mean_motion": 14.26454619,
        "meta_eccentricity": 0.01102473,
        "meta_inclination": 73.9638,
        "meta_ra_of_asc_node": 272.5587,
        "meta_arg_of_pericenter": 103.5153,
        "meta_mean_anomaly": 273.8209,
        "meta_ephemeris_type": 0,
        "meta_classification_type": "U",
        "meta_norad_cat_id": 34613,
        "meta_element_set_no": 999,
        "meta_rev_at_epoch": 86510,
        "meta_bstar": 0.00095440148,
        "meta_mean_motion_dot": 2.425e-05,
        "meta_mean_motion_ddot": 0,
        "tle_line1": "1 34613U 93036WJ  25350.04063939  .00002425  00000+0  95440-3 0  9994",
        "tle_line2": "2 34613  73.9638 272.5587 0110247 103.5153 273.8209 14.26454619865107"
      },
      "geometry": {
        "type": "Point",
        "coordinates": [
          -149.48552349120476,
          -71.04298258908767
        ]
      }
    },
    {
      "type": "Feature",
      "properties": {
        "norad_id": 34614,
        "name": "COSMOS 2251 DEB",
        "group": "cosmos-2251-debris",
        "lat": -0.26518097006283176,
        "lon": -27.26703966463423,
        "alt_km": 716.8098765230507,
        "timestamp": "2025-12-18T21:31:51.399807+00:00",
        "meta_object_name": "COSMOS 2251 DEB",
        "meta_object_id": "1993-036WK",
        "meta_epoch": "2025-12-16T00:21:28.707840",
        "meta_mean_motion": 14.17601251,
        "meta_eccentricity": 0.0198196,
        "meta_inclination": 73.8837,
        "meta_ra_of_asc_node": 337.994,
        "meta_arg_of_pericenter": 331.3985,
        "meta_mean_anomaly": 83.6306,
        "meta_ephemeris_type": 0,
        "meta_classification_type": "U",
        "meta_norad_cat_id": 34614,
        "meta_element_set_no": 999,
        "meta_rev_at_epoch": 84813,
        "meta_bstar": 0.0047337499,
        "meta_mean_motion_dot": 0.00011666,
        "meta_mean_motion_ddot": 0,
        "tle_line1": "1 34614U 93036WK  25350.01491560  .00011666  00000+0  47337-2 0  9995",
        "tle_line2": "2 34614  73.8837 337.9940 0198196 331.3985  83.6306 14.17601251848135"
      },
      "geometry": {
        "type": "Point",
        "coordinates": [
          -27.26703966463423,
          -0.26518097006283176
        ]
      }
    }
  ]
}